OBJECT_NAME,OBJECT_ID,EPOCH,MEAN_MOTION,ECCENTRICITY,INCLINATION,RA_OF_ASC_NODE,ARG_OF_PERICENTER,MEAN_ANOMALY,EPHEMERIS_TYPE,CLASSIFICATION_TYPE,NORAD_CAT_ID,ELEMENT_SET_NO,REV_AT_EPOCH,BSTAR,MEAN_MOTION_DOT,MEAN_MOTION_DDOT
STARLINK-3950,2022-086Y,2026-07-10T06:00:02.000160,15.20140163,.00004908,53.1592,3.3613,147.2186,205.7328,0,U,53264,999,579,.20132564E-2,.44029E-3,0
STARLINK-4097,2022-086Z,2026-07-10T06:00:02.000160,15.20455947,.0001268,53.1610,3.1519,47.0466,133.9065,0,U,53265,999,579,.21468083E-2,.47429E-3,0
STARLINK-4058,2022-086AA,2026-07-10T06:00:02.000160,15.24728244,.00014562,53.1611,3.0036,96.7766,140.6844,0,U,53266,999,579,.20904358E-2,.52452E-3,0
STARLINK-4060,2022-086AB,2026-07-10T06:00:02.000160,15.24098951,.0000812,53.1592,3.0268,148.2181,136.9571,0,U,53267,999,579,.32721666E-2,.81076E-3,0
STARLINK-4109,2022-086AC,2026-07-10T03:22:54.038208,15.26011873,.00011126,53.1627,2.1848,82.7631,277.3495,0,U,53268,999,21958,.46682082E-4,.874E-5,0
STARLINK-4122,2022-086AG,2026-07-10T06:00:02.000160,15.35377307,.00010179,53.1596,351.2248,87.8860,57.6119,0,U,53272,999,574,.10733306E-2,.37217E-3,0
STARLINK-4051,2022-086AH,2026-07-10T06:00:02.000160,15.33499753,.000166,53.1601,351.5245,105.2264,347.2462,0,U,53273,999,580,.12244116E-2,.40048E-3,0
STARLINK-4050,2022-086AJ,2026-07-09T10:42:33.222240,15.33542119,.00008471,53.1610,355.1055,82.4091,277.7007,0,U,53274,999,21961,.35290782E-4,.788E-5,0
STARLINK-4179,2022-086AK,2026-07-10T06:00:02.000160,15.29845644,.0001448,53.1586,352.1360,82.2266,75.6861,0,U,53275,999,575,.26841844E-2,.79115E-3,0
STARLINK-4174,2022-086AL,2026-07-10T06:00:02.000160,15.31142630,.00007641,53.1594,351.4025,65.3127,71.1688,0,U,53276,999,580,.27509435E-2,.84487E-3,0
STARLINK-4178,2022-086AM,2026-07-10T06:00:02.000160,15.23766548,.00007273,53.1604,352.1044,123.0076,110.0662,0,U,53277,999,580,.28917928E-2,.70805E-3,0
STARLINK-4180,2022-086AN,2026-07-10T06:00:02.000160,15.31685187,.00010988,53.1590,352.2456,76.7879,44.9348,0,U,53278,999,573,.10051036E-2,.30939E-3,0
STARLINK-4169,2022-086AQ,2026-07-10T06:00:02.000160,15.20120393,.00019121,53.1602,307.6774,117.4608,41.7098,0,U,53280,999,574,.33959448E-2,.74764E-3,0
STARLINK-4164,2022-086AS,2026-07-09T17:45:39.600288,15.33553324,.00011263,53.1614,353.6621,83.9093,276.2037,0,U,53282,999,21965,.39093364E-4,.913E-5,0
STARLINK-4175,2022-086AT,2026-07-10T06:00:02.000160,15.33530109,.00012436,53.1591,351.4489,91.0046,180.9139,0,U,53283,999,579,.10776559E-2,.35214E-3,0
STARLINK-4173,2022-086AV,2026-07-10T06:00:02.000160,15.30916837,.0000931,53.1601,351.4823,102.8759,211.6045,0,U,53285,999,574,.27799595E-2,.84786E-3,0
STARLINK-4165,2022-086AW,2026-07-10T06:00:02.000160,15.29275807,.00010642,53.1633,352.2133,92.3704,167.1127,0,U,53286,999,580,.70639564E-2,.208791E-2,0
STARLINK-4107,2022-086AX,2026-07-10T06:00:02.000160,15.33535663,.00012106,53.1608,351.3833,84.7633,319.3794,0,U,53287,999,574,.11317404E-2,.37016E-3,0
STARLINK-4162,2022-086AY,2026-07-10T06:00:02.000160,15.29993430,.00013545,53.1591,351.5990,88.9526,145.6575,0,U,53288,999,579,.26432295E-2,.78251E-3,0
STARLINK-4176,2022-086AZ,2026-07-10T06:00:02.000160,15.33959104,.00013837,53.1601,347.2199,102.2040,73.4303,0,U,53289,999,573,.32278355E-1,.1166533E-1,0
STARLINK-4149,2022-086BA,2026-07-09T17:20:03.469632,15.09899512,.00010346,53.2161,356.1566,96.2510,263.8601,0,U,53290,999,21961,.84473131E-3,.13577E-3,0
STARLINK-4166,2022-086BB,2026-07-10T06:00:02.000160,15.26468588,.00015987,53.1602,347.2729,81.0503,66.5594,0,U,53291,999,579,.29823957E-2,.79308E-3,0
STARLINK-4159,2022-086BC,2026-07-10T06:00:02.000160,15.35370910,.00009529,53.1607,351.4519,92.9237,285.8705,0,U,53292,999,579,.13116371E-2,.45606E-3,0
STARLINK-4148,2022-086BD,2026-07-10T06:00:02.000160,15.26443223,.0002041,53.1616,342.9326,72.8320,64.9658,0,U,53293,999,544,.42520206E-2,.113661E-2,0
STARLINK-4146,2022-086BE,2026-07-10T06:00:02.000160,15.18755956,.00011619,53.1591,343.1360,145.0669,67.8340,0,U,53294,999,580,.36182762E-2,.76599E-3,0
YAOGAN-35 03B,2022-088C,2026-07-10T02:17:36.047040,15.25105002,.00123126,34.9893,64.1921,232.8607,127.0984,0,U,53318,999,21984,.23656087E-3,.6049E-4,0
YAOGAN-35 03C,2022-088E,2026-07-09T21:42:41.474016,15.46977848,.00016679,34.9963,4.0293,356.6260,3.4451,0,U,53320,999,22045,.58939994E-3,.30713E-3,0
COSMOS 2558,2022-089A,2026-07-09T20:29:02.909760,15.80528596,.0003666,97.2242,295.9254,238.3398,121.7513,0,U,53323,999,22140,.61174E-3,.11711E-2,0
TECMS,2022-090A,2026-07-10T07:26:11.817600,15.21213112,.00055387,97.3130,258.7644,97.2237,262.9629,0,U,53346,999,21832,.10799848E-3,.2343E-4,0
SBIRS GEO-6 (USA 336),2022-092A,2026-07-10T06:35:51.835200,1.00270695,.00017136,3.2203,317.8527,151.1819,57.1390,0,U,53355,999,1446,0,-.278E-5,0
