STARLINK-3950           
1 53264U 22086Y   26191.25002315  .00044029  00000+0  20133-2 0  9994
2 53264  53.1592   3.3613 0000490 147.2186 205.7328 15.20140163  5796
STARLINK-4097           
1 53265U 22086Z   26191.25002315  .00047429  00000+0  21468-2 0  9994
2 53265  53.1610   3.1519 0001268  47.0466 133.9065 15.20455947  5792
STARLINK-4058           
1 53266U 22086AA  26191.25002315  .00052452  00000+0  20904-2 0  9991
2 53266  53.1611   3.0036 0001456  96.7766 140.6844 15.24728244  5797
STARLINK-4060           
1 53267U 22086AB  26191.25002315  .00081076  00000+0  32722-2 0  9997
2 53267  53.1592   3.0268 0000812 148.2181 136.9571 15.24098951  5792
STARLINK-4109           
1 53268U 22086AC  26191.14090322  .00000874  00000+0  46682-4 0  9990
2 53268  53.1627   2.1848 0001112  82.7631 277.3495 15.26011873219581
STARLINK-4122           
1 53272U 22086AG  26191.25002315  .00037217  00000+0  10733-2 0  9999
2 53272  53.1596 351.2248 0001017  87.8860  57.6119 15.35377307  5747
STARLINK-4051           
1 53273U 22086AH  26191.25002315  .00040048  00000+0  12244-2 0  9995
2 53273  53.1601 351.5245 0001660 105.2264 347.2462 15.33499753  5806
STARLINK-4050           
1 53274U 22086AJ  26190.44621785  .00000788  00000+0  35291-4 0  9990
2 53274  53.1610 355.1055 0000847  82.4091 277.7007 15.33542119219619
STARLINK-4179           
1 53275U 22086AK  26191.25002315  .00079115  00000+0  26842-2 0  9993
2 53275  53.1586 352.1360 0001448  82.2266  75.6861 15.29845644  5753
STARLINK-4174           
1 53276U 22086AL  26191.25002315  .00084487  00000+0  27509-2 0  9993
2 53276  53.1594 351.4025 0000764  65.3127  71.1688 15.31142630  5803
STARLINK-4178           
1 53277U 22086AM  26191.25002315  .00070805  00000+0  28918-2 0  9998
2 53277  53.1604 352.1044 0000727 123.0076 110.0662 15.23766548  5805
STARLINK-4180           
1 53278U 22086AN  26191.25002315  .00030939  00000+0  10051-2 0  9992
2 53278  53.1590 352.2456 0001098  76.7879  44.9348 15.31685187  5731
STARLINK-4169           
1 53280U 22086AQ  26191.25002315  .00074764  00000+0  33959-2 0  9991
2 53280  53.1602 307.6774 0001912 117.4608  41.7098 15.20120393  5742
STARLINK-4164           
1 53282U 22086AS  26190.74004167  .00000913  00000+0  39093-4 0  9995
2 53282  53.1614 353.6621 0001126  83.9093 276.2037 15.33553324219654
STARLINK-4175           
1 53283U 22086AT  26191.25002315  .00035214  00000+0  10777-2 0  9994
2 53283  53.1591 351.4489 0001243  91.0046 180.9139 15.33530109  5793
STARLINK-4173           
1 53285U 22086AV  26191.25002315  .00084786  00000+0  27800-2 0  9999
2 53285  53.1601 351.4823 0000931 102.8759 211.6045 15.30916837  5740
STARLINK-4165           
1 53286U 22086AW  26191.25002315  .00208791  00000+0  70640-2 0  9994
2 53286  53.1633 352.2133 0001064  92.3704 167.1127 15.29275807  5806
STARLINK-4107           
1 53287U 22086AX  26191.25002315  .00037016  00000+0  11317-2 0  9991
2 53287  53.1608 351.3833 0001210  84.7633 319.3794 15.33535663  5743
STARLINK-4162           
1 53288U 22086AY  26191.25002315  .00078251  00000+0  26432-2 0  9992
2 53288  53.1591 351.5990 0001354  88.9526 145.6575 15.29993430  5794
STARLINK-4176           
1 53289U 22086AZ  26191.25002315  .01166533  00000+0  32278-1 0  9999
2 53289  53.1601 347.2199 0001383 102.2040  73.4303 15.33959104  5739
STARLINK-4149           
1 53290U 22086BA  26190.72226238  .00013577  00000+0  84473-3 0  9998
2 53290  53.2161 356.1566 0001034  96.2510 263.8601 15.09899512219616
STARLINK-4166           
1 53291U 22086BB  26191.25002315  .00079308  00000+0  29824-2 0  9998
2 53291  53.1602 347.2729 0001598  81.0503  66.5594 15.26468588  5792
STARLINK-4159           
1 53292U 22086BC  26191.25002315  .00045606  00000+0  13116-2 0  9990
2 53292  53.1607 351.4519 0000952  92.9237 285.8705 15.35370910  5791
STARLINK-4148           
1 53293U 22086BD  26191.25002315  .00113661  00000+0  42520-2 0  9999
2 53293  53.1616 342.9326 0002041  72.8320  64.9658 15.26443223  5447
STARLINK-4146           
1 53294U 22086BE  26191.25002315  .00076599  00000+0  36183-2 0  9996
2 53294  53.1591 343.1360 0001161 145.0669  67.8340 15.18755956  5802
YAOGAN-35 03B           
1 53318U 22088C   26191.09555610  .00006049  00000+0  23656-3 0  9993
2 53318  34.9893  64.1921 0012312 232.8607 127.0984 15.25105002219844
YAOGAN-35 03C           
1 53320U 22088E   26190.90464669  .00030713  00000+0  58940-3 0  9997
2 53320  34.9963   4.0293 0001667 356.6260   3.4451 15.46977848220454
COSMOS 2558             
1 53323U 22089A   26190.85350590  .00117110  00000+0  61174-3 0  9992
2 53323  97.2242 295.9254 0003666 238.3398 121.7513 15.80528596221405
TECMS                   
1 53346U 22090A   26191.30985900  .00002343  00000+0  10800-3 0  9990
2 53346  97.3130 258.7644 0005538  97.2237 262.9629 15.21213112218324
SBIRS GEO-6 (USA 336)   
1 53355U 22092A   26191.27490550 -.00000278  00000+0  00000+0 0  9993
2 53355   3.2203 317.8527 0001713 151.1819  57.1390  1.00270695 14464
